ORBCOMM FM05            
1 25117U 97084F   24145.17939384  .00003568  00000+0  11015-2 0  9995
2 25117  45.0155  71.3748 0002595  46.9335 313.1732 14.42822533385302
ORBCOMM FM06            
1 25118U 97084G   24144.86989979  .00003925  00000+0  12062-2 0  9996
2 25118  45.0148  73.0148 0001756  46.7838   0.3392 14.42873060385254
ORBCOMM FM07            
1 25119U 97084H   24145.19907022  .00003385  00000+0  10480-2 0  9995
2 25119  45.0144  71.9860 0003440  41.0628 319.0480 14.42791927385299
ORBCOMM FM03            
1 25158U 98007B   24144.65055372  .00001885  00000+0  73727-3 0  9993
2 25158 107.9714  56.6371 0047385 210.8047 149.0309 14.32241033368229
ORBCOMM FM04            
1 25159U 98007C   24145.19541587  .00002013  00000+0  78160-3 0  9992
2 25159 107.9696  60.6979 0042856 207.7579 152.1271 14.32510145368586
ORBCOMM FM17            
1 25413U 98046A   24144.52729734  .00002278  00000+0  87167-3 0  9996
2 25413  44.9948 293.9617 0001316  92.7083 267.3914 14.33224898347237
ORBCOMM FM18            
1 25414U 98046B   24145.19222551  .00002327  00000+0  84160-3 0  9991
2 25414  44.9922 217.6353 0003074 153.9915 206.1087 14.36008747348450
ORBCOMM FM19            
1 25415U 98046C   24144.34634785  .00002402  00000+0  87006-3 0  9990
2 25415  44.9933 223.0626 0001755 156.1004 314.4372 14.35841710348123
